[
    {
        "OBJECT_NAME": "GSAT0101 (GALILEO-PFM)",
        "OBJECT_ID": "2011-060A",
        "EPOCH": "2025-11-23T13:02:49.009056",
        "MEAN_MOTION": 1.70475793,
        "ECCENTRICITY": 0.0002575,
        "INCLINATION": 57.0576,
        "RA_OF_ASC_NODE": 347.3415,
        "ARG_OF_PERICENTER": 308.0644,
        "MEAN_ANOMALY": 51.9574,
        "EPHEMERIS_TYPE": 0,
        "CLASSIFICATION_TYPE": "U",
        "NORAD_CAT_ID": 37846,
        "ELEMENT_SET_NO": 999,
        "REV_AT_EPOCH": 8761,
        "BSTAR": 0,
        "MEAN_MOTION_DOT": -6.5e-07,
        "MEAN_MOTION_DDOT": 0
    },
    {
        "OBJECT_NAME": "GSAT0102 (GALILEO-FM2)",
        "OBJECT_ID": "2011-060B",
        "EPOCH": "2025-11-23T12:26:19.930272",
        "MEAN_MOTION": 1.70476021,
        "ECCENTRICITY": 0.000452,
        "INCLINATION": 57.0579,
        "RA_OF_ASC_NODE": 347.3426,
        "ARG_OF_PERICENTER": 304.0394,
        "MEAN_ANOMALY": 85.885,
        "EPHEMERIS_TYPE": 0,
        "CLASSIFICATION_TYPE": "U",
        "NORAD_CAT_ID": 37847,
        "ELEMENT_SET_NO": 999,
        "REV_AT_EPOCH": 8762,
        "BSTAR": 0,
        "MEAN_MOTION_DOT": -6.5e-07,
        "MEAN_MOTION_DDOT": 0
    },
    {
        "OBJECT_NAME": "GSAT0103 (GALILEO-FM3)",
        "OBJECT_ID": "2012-055A",
        "EPOCH": "2025-11-21T19:46:23.233728",
        "MEAN_MOTION": 1.70473477,
        "ECCENTRICITY": 0.00020603,
        "INCLINATION": 55.68,
        "RA_OF_ASC_NODE": 107.2409,
        "ARG_OF_PERICENTER": 267.2459,
        "MEAN_ANOMALY": 92.6928,
        "EPHEMERIS_TYPE": 0,
        "CLASSIFICATION_TYPE": "U",
        "NORAD_CAT_ID": 38857,
        "ELEMENT_SET_NO": 999,
        "REV_AT_EPOCH": 8147,
        "BSTAR": 0,
        "MEAN_MOTION_DOT": 3.3e-07,
        "MEAN_MOTION_DDOT": 0
    },
    {
        "OBJECT_NAME": "GSAT0201 (GALILEO 5)",
        "OBJECT_ID": "2014-050A",
        "EPOCH": "2025-11-22T23:38:41.269632",
        "MEAN_MOTION": 1.85519713,
        "ECCENTRICITY": 0.16459823,
        "INCLINATION": 49.0998,
        "RA_OF_ASC_NODE": 281.8687,
        "ARG_OF_PERICENTER": 171.5338,
        "MEAN_ANOMALY": 191.6606,
        "EPHEMERIS_TYPE": 0,
        "CLASSIFICATION_TYPE": "U",
        "NORAD_CAT_ID": 40128,
        "ELEMENT_SET_NO": 999,
        "REV_AT_EPOCH": 7449,
        "BSTAR": 0,
        "MEAN_MOTION_DOT": -4.6e-07,
        "MEAN_MOTION_DDOT": 0
    },
    {
        "OBJECT_NAME": "GSAT0202 (GALILEO 6)",
        "OBJECT_ID": "2014-050B",
        "EPOCH": "2025-11-22T03:55:30.032256",
        "MEAN_MOTION": 1.85520571,
        "ECCENTRICITY": 0.1646521,
        "INCLINATION": 49.1167,
        "RA_OF_ASC_NODE": 280.9855,
        "ARG_OF_PERICENTER": 172.2584,
        "MEAN_ANOMALY": 190.6672,
        "EPHEMERIS_TYPE": 0,
        "CLASSIFICATION_TYPE": "U",
        "NORAD_CAT_ID": 40129,
        "ELEMENT_SET_NO": 999,
        "REV_AT_EPOCH": 7664,
        "BSTAR": 0,
        "MEAN_MOTION_DOT": -5.1e-07,
        "MEAN_MOTION_DDOT": 0
    },
    {
        "OBJECT_NAME": "GSAT0203 (GALILEO 7)",
        "OBJECT_ID": "2015-017A",
        "EPOCH": "2025-11-22T03:33:59.192064",
        "MEAN_MOTION": 1.70476185,
        "ECCENTRICITY": 0.00063928,
        "INCLINATION": 56.8511,
        "RA_OF_ASC_NODE": 347.2421,
        "ARG_OF_PERICENTER": 265.9419,
        "MEAN_ANOMALY": 94.032,
        "EPHEMERIS_TYPE": 0,
        "CLASSIFICATION_TYPE": "U",
        "NORAD_CAT_ID": 40544,
        "ELEMENT_SET_NO": 999,
        "REV_AT_EPOCH": 6567,
        "BSTAR": 0,
        "MEAN_MOTION_DOT": -6.9e-07,
        "MEAN_MOTION_DDOT": 0
    },
    {
        "OBJECT_NAME": "GSAT0204 (GALILEO 8)",
        "OBJECT_ID": "2015-017B",
        "EPOCH": "2025-11-21T19:37:07.053600",
        "MEAN_MOTION": 1.70475764,
        "ECCENTRICITY": 0.00062096,
        "INCLINATION": 56.8571,
        "RA_OF_ASC_NODE": 347.2688,
        "ARG_OF_PERICENTER": 257.1588,
        "MEAN_ANOMALY": 102.8194,
        "EPHEMERIS_TYPE": 0,
        "CLASSIFICATION_TYPE": "U",
        "NORAD_CAT_ID": 40545,
        "ELEMENT_SET_NO": 999,
        "REV_AT_EPOCH": 2871,
        "BSTAR": 0,
        "MEAN_MOTION_DOT": -7e-07,
        "MEAN_MOTION_DDOT": 0
    },
    {
        "OBJECT_NAME": "GSAT0205 (GALILEO 9)",
        "OBJECT_ID": "2015-045A",
        "EPOCH": "2025-11-21T14:03:37.007136",
        "MEAN_MOTION": 1.70473009,
        "ECCENTRICITY": 0.00056453,
        "INCLINATION": 55.0112,
        "RA_OF_ASC_NODE": 227.3429,
        "ARG_OF_PERICENTER": 36.1208,
        "MEAN_ANOMALY": 323.9943,
        "EPHEMERIS_TYPE": 0,
        "CLASSIFICATION_TYPE": "U",
        "NORAD_CAT_ID": 40889,
        "ELEMENT_SET_NO": 999,
        "REV_AT_EPOCH": 6347,
        "BSTAR": 0,
        "MEAN_MOTION_DOT": 2.2e-07,
        "MEAN_MOTION_DDOT": 0
    },
    {
        "OBJECT_NAME": "GSAT0206 (GALILEO 10)",
        "OBJECT_ID": "2015-045B",
        "EPOCH": "2025-11-22T23:30:43.774848",
        "MEAN_MOTION": 1.70473086,
        "ECCENTRICITY": 0.000355,
        "INCLINATION": 55.0097,
        "RA_OF_ASC_NODE": 227.2995,
        "ARG_OF_PERICENTER": 30.7123,
        "MEAN_ANOMALY": 329.3906,
        "EPHEMERIS_TYPE": 0,
        "CLASSIFICATION_TYPE": "U",
        "NORAD_CAT_ID": 40890,
        "ELEMENT_SET_NO": 999,
        "REV_AT_EPOCH": 6352,
        "BSTAR": 0,
        "MEAN_MOTION_DOT": 2.7e-07,
        "MEAN_MOTION_DDOT": 0
    },
    {
        "OBJECT_NAME": "GSAT0209 (GALILEO 12)",
        "OBJECT_ID": "2015-079A",
        "EPOCH": "2025-11-23T03:32:58.718112",
        "MEAN_MOTION": 1.70474429,
        "ECCENTRICITY": 0.0002344,
        "INCLINATION": 55.7006,
        "RA_OF_ASC_NODE": 106.9188,
        "ARG_OF_PERICENTER": 2.0968,
        "MEAN_ANOMALY": 357.8685,
        "EPHEMERIS_TYPE": 0,
        "CLASSIFICATION_TYPE": "U",
        "NORAD_CAT_ID": 41174,
        "ELEMENT_SET_NO": 999,
        "REV_AT_EPOCH": 6126,
        "BSTAR": 0,
        "MEAN_MOTION_DOT": 3.7e-07,
        "MEAN_MOTION_DDOT": 0
    },
    {
        "OBJECT_NAME": "GSAT0208 (GALILEO 11)",
        "OBJECT_ID": "2015-079B",
        "EPOCH": "2025-11-21T00:31:15.859776",
        "MEAN_MOTION": 1.70474234,
        "ECCENTRICITY": 0.00019561,
        "INCLINATION": 55.6986,
        "RA_OF_ASC_NODE": 106.9742,
        "ARG_OF_PERICENTER": 13.3898,
        "MEAN_ANOMALY": 346.5776,
        "EPHEMERIS_TYPE": 0,
        "CLASSIFICATION_TYPE": "U",
        "NORAD_CAT_ID": 41175,
        "ELEMENT_SET_NO": 999,
        "REV_AT_EPOCH": 6164,
        "BSTAR": 0,
        "MEAN_MOTION_DOT": 3.1e-07,
        "MEAN_MOTION_DDOT": 0
    },
    {
        "OBJECT_NAME": "GSAT0211 (GALILEO 14)",
        "OBJECT_ID": "2016-030A",
        "EPOCH": "2025-11-22T07:39:06.100704",
        "MEAN_MOTION": 1.70473086,
        "ECCENTRICITY": 0.00037538,
        "INCLINATION": 55.1598,
        "RA_OF_ASC_NODE": 227.3857,
        "ARG_OF_PERICENTER": 1.0711,
        "MEAN_ANOMALY": 359.0098,
        "EPHEMERIS_TYPE": 0,
        "CLASSIFICATION_TYPE": "U",
        "NORAD_CAT_ID": 41549,
        "ELEMENT_SET_NO": 999,
        "REV_AT_EPOCH": 5914,
        "BSTAR": 0,
        "MEAN_MOTION_DOT": 2.5e-07,
        "MEAN_MOTION_DDOT": 0
    },
    {
        "OBJECT_NAME": "GSAT0210 (GALILEO 13)",
        "OBJECT_ID": "2016-030B",
        "EPOCH": "2025-11-21T23:45:10.533600",
        "MEAN_MOTION": 1.70473622,
        "ECCENTRICITY": 0.00015811,
        "INCLINATION": 55.1592,
        "RA_OF_ASC_NODE": 227.3928,
        "ARG_OF_PERICENTER": 247.3188,
        "MEAN_ANOMALY": 112.7433,
        "EPHEMERIS_TYPE": 0,
        "CLASSIFICATION_TYPE": "U",
        "NORAD_CAT_ID": 41550,
        "ELEMENT_SET_NO": 999,
        "REV_AT_EPOCH": 5913,
        "BSTAR": 0,
        "MEAN_MOTION_DOT": 2.4e-07,
        "MEAN_MOTION_DDOT": 0
    }
]