GSAT0101 (GALILEO-PFM)  
1 37846U 11060A   25327.54362279 -.00000065  00000+0  00000+0 0  9993
2 37846  57.0576 347.3415 0002575 308.0644  51.9574  1.70475793 87617
GSAT0102 (GALILEO-FM2)  
1 37847U 11060B   25327.51828623 -.00000065  00000+0  00000+0 0  9991
2 37847  57.0579 347.3426 0004520 304.0394  85.8850  1.70476021 87622
GSAT0103 (GALILEO-FM3)  
1 38857U 12055A   25325.82388002  .00000033  00000+0  00000+0 0  9996
2 38857  55.6800 107.2409 0002060 267.2459  92.6928  1.70473477 81479
GSAT0201 (GALILEO 5)    
1 40128U 14050A   25326.98519988 -.00000046  00000+0  00000+0 0  9999
2 40128  49.0998 281.8687 1645982 171.5338 191.6606  1.85519713 74492
GSAT0202 (GALILEO 6)    
1 40129U 14050B   25326.16354204 -.00000051  00000+0  00000+0 0  9994
2 40129  49.1167 280.9855 1646521 172.2584 190.6672  1.85520571 76645
GSAT0203 (GALILEO 7)    
1 40544U 15017A   25326.14860176 -.00000069  00000+0  00000+0 0  9996
2 40544  56.8511 347.2421 0006392 265.9419  94.0320  1.70476185 65675
GSAT0204 (GALILEO 8)    
1 40545U 15017B   25325.81744275 -.00000070  00000+0  00000+0 0  9993
2 40545  56.8571 347.2688 0006209 257.1588 102.8194  1.70475764 28717
GSAT0205 (GALILEO 9)    
1 40889U 15045A   25325.58584499  .00000022  00000+0  00000+0 0  9995
2 40889  55.0112 227.3429 0005645  36.1208 323.9943  1.70473009 63478
GSAT0206 (GALILEO 10)   
1 40890U 15045B   25326.97967332  .00000027  00000+0  00000+0 0  9997
2 40890  55.0097 227.2995 0003550  30.7123 329.3906  1.70473086 63528
GSAT0209 (GALILEO 12)   
1 41174U 15079A   25327.14790183  .00000037  00000+0  00000+0 0  9999
2 41174  55.7006 106.9188 0002344   2.0968 357.8685  1.70474429 61268
GSAT0208 (GALILEO 11)   
1 41175U 15079B   25325.02171134  .00000031  00000+0  00000+0 0  9998
2 41175  55.6986 106.9742 0001956  13.3898 346.5776  1.70474234 61648
GSAT0211 (GALILEO 14)   
1 41549U 16030A   25326.31882061  .00000025  00000+0  00000+0 0  9995
2 41549  55.1598 227.3857 0003753   1.0711 359.0098  1.70473086 59149
GSAT0210 (GALILEO 13)   
1 41550U 16030B   25325.98970525  .00000024  00000+0  00000+0 0  9991
2 41550  55.1592 227.3928 0001581 247.3188 112.7433  1.70473622 59136
